QIANFAN-57              
1 62787U 25016C   25198.84342748  .00000141  00000+0  20016-3 0  9996
2 62787  88.9867 118.4343 0017352  58.6157 301.6689 13.50958071 27238
QIANFAN-58              
1 62788U 25016D   25199.18497745  .00000140  00000+0  19875-3 0  9993
2 62788  88.9837 118.2770 0016112  53.3377 306.9252 13.50951644 27320
QIANFAN-59              
1 62789U 25016E   25198.90116171  .00000121  00000+0  16788-3 0  9993
2 62789  88.9861 118.3415 0017072  56.7207 303.5577 13.50955946 27287
QIANFAN-60              
1 62790U 25016F   25198.89281174  .00000130  00000+0  18271-3 0  9998
2 62790  88.9842 118.3501 0017516  54.6458 305.6327 13.50964284 27261
QIANFAN-61              
1 62791U 25016G   25198.90526480  .00000123  00000+0  17112-3 0  9998
2 62791  88.9910 118.4059 0016932  53.6428 306.6282 13.50953885 27282
QIANFAN-62              
1 62792U 25016H   25198.90919193  .00000094  00000+0  12710-3 0  9992
2 62792  88.9856 118.3540 0018334  53.6621 306.6219 13.50958790 27278
QIANFAN-63              
1 62793U 25016J   25198.84748846  .00000136  00000+0  19104-3 0  9992
2 62793  88.9862 118.2990 0018193  57.8304 302.4609 13.50958840 27308
QIANFAN-64              
1 62794U 25016K   25198.83926341  .00000133  00000+0  18665-3 0  9998
2 62794  88.9849 118.2998 0015956  52.7420 307.5184 13.50958548 27296
